      2.10          N: GNSS NAV DATA                        RINEX VERSION / TYPE
fic2rin                                 06/14/2018 00:08:51 PGM / RUN BY / DATE
                                                            END OF HEADER
 1 18  6 13  1 59 44.0-5.580857396126e-05-3.410605131648e-12 0.000000000000e+00
    3.400000000000e+01-6.096875000000e+01 4.045525655239e-09-1.821102307969e+00
   -3.313645720482e-06 7.893399568275e-03 1.255050301552e-05 5.153673517227e+03
    2.663840000000e+05 1.247972249985e-07-2.999072011479e+00-3.911554813385e-08
    9.718643028492e-01 1.406562500000e+02 6.389586504839e-01-7.552100289576e-09
    6.446697102239e-10 1.000000000000e+00 2.005000000000e+03 0.000000000000e+00
    2.400000000000e+00 0.000000000000e+00 5.587935447693e-09 3.400000000000e+01
    2.592060000000e+05 4.000000000000e+00
 4 18  6 13  1 59 44.0 6.930343806744e-05 3.410605131648e-12 0.000000000000e+00
    2.200000000000e+01 7.031250000000e+01 5.685951128402e-09 1.567883313113e+00
    3.512948751450e-06 9.834818192758e-03 4.339963197708e-07 5.153702497482e+03
    2.663840000000e+05-1.937150955200e-07 1.212730985056e+00-7.078051567078e-08
    9.787405664160e-01 3.810625000000e+02 9.321725719064e-01-8.514640383235e-09
    2.017941198208e-10 1.000000000000e+00 2.005000000000e+03 0.000000000000e+00
    2.400000000000e+00 6.300000000000e+01-1.955777406693e-08 2.200000000000e+01
    2.592060000000e+05 4.000000000000e+00
19 18  6 13  1 59 44.0-4.288810305297e-04 3.069544618484e-12 0.000000000000e+00
    2.300000000000e+01-1.541875000000e+02 3.999809465262e-09-3.091058752536e+00
   -8.152797818184e-06 9.904289501719e-03 5.917623639107e-06 5.153723640442e+03
    2.663840000000e+05 1.024454832077e-07 2.329265448215e+00-1.434236764908e-07
    9.803715576905e-01 2.758125000000e+02 1.201976386684e+00-7.814968381945e-09
   -1.989368579472e-10 1.000000000000e+00 2.005000000000e+03 0.000000000000e+00
    2.400000000000e+00 0.000000000000e+00-1.536682248116e-08 2.300000000000e+01
    2.592060000000e+05 4.000000000000e+00
 2 18  6 13  2  0  0.0 8.756155148149e-05-1.091393642128e-11 0.000000000000e+00
    9.600000000000e+01-4.778125000000e+01 4.554832584203e-09-1.487215362341e+00
   -2.190470695496e-06 1.787144597620e-02 1.214258372784e-05 5.153760215759e+03
    2.664000000000e+05 2.346932888031e-07-3.060508884445e+00 3.669410943985e-07
    9.509367594073e-01 1.375312500000e+02-1.852509450443e+00-7.831040479983e-09
    4.643050544549e-10 1.000000000000e+00 2.005000000000e+03 0.000000000000e+00
    2.400000000000e+00 0.000000000000e+00-2.048909664154e-08 9.600000000000e+01
    2.592060000000e+05 4.000000000000e+00
 8 18  6 13  2  0  0.0-1.045712269843e-04-1.364242052659e-12 0.000000000000e+00
    3.300000000000e+01-1.528750000000e+02 4.326965949786e-09 6.589124112839e-01
   -7.854774594307e-06 3.468786599115e-03 4.434958100319e-06 5.153583463669e+03
    2.664000000000e+05 1.136213541031e-07 2.219551579358e+00-2.793967723846e-08
    9.692764285624e-01 2.984687500000e+02-4.180134117536e-01-8.265344284766e-09
   -2.728685089258e-10 1.000000000000e+00 2.005000000000e+03 0.000000000000e+00
    2.400000000000e+00 0.000000000000e+00 5.122274160385e-09 3.300000000000e+01
    2.592060000000e+05 4.000000000000e+00
 5 18  6 13  2  0  0.0-6.255693733692e-06 6.821210263297e-13 0.000000000000e+00
    6.400000000000e+01 2.796875000000e+01 5.504514999430e-09 1.184946892331e+00
    1.715496182442e-06 5.399323883466e-03 5.561858415604e-06 5.153712276459e+03
    2.664000000000e+05 5.774199962616e-08-1.978578807795e+00 1.508742570877e-07
    9.476157495768e-01 2.661250000000e+02 6.140068490841e-01-8.568214043364e-09
    3.089414400796e-10 1.000000000000e+00 2.005000000000e+03 0.000000000000e+00
    2.400000000000e+00 0.000000000000e+00-1.117587089539e-08 6.400000000000e+01
    2.592060000000e+05 4.000000000000e+00
 3 18  6 13  2  0  0.0 8.809613063931e-05 6.707523425575e-12 0.000000000000e+00
    5.700000000000e+01 2.253125000000e+01 5.081997399876e-09-2.694234478846e+00
    1.128762960434e-06 1.439581625164e-03 5.736947059631e-06 5.153729106903e+03
    2.664000000000e+05-3.725290298462e-08-1.956512985351e+00-1.043081283569e-07
    9.607088268874e-01 2.665312500000e+02 4.334870795626e-01-8.195341368863e-09
    3.585863651329e-10 1.000000000000e+00 2.005000000000e+03 0.000000000000e+00
    2.400000000000e+00 0.000000000000e+00 2.328306436539e-09 5.700000000000e+01
    2.592060000000e+05 4.000000000000e+00
 7 18  6 13  2  0  0.0 1.762355677783e-04-6.252776074689e-12 0.000000000000e+00
    3.600000000000e+01 1.259062500000e+02 4.017310194238e-09-2.497158840552e+00
    6.362795829773e-06 1.173669018317e-02 1.202523708344e-05 5.153668855667e+03
    2.664000000000e+05 1.490116119385e-08 1.548787537675e-01-1.210719347000e-07
    9.589064269645e-01 1.451875000000e+02-2.526646928552e+00-7.615317208529e-09
    3.071556514086e-11 1.000000000000e+00 2.005000000000e+03 0.000000000000e+00
    2.400000000000e+00 0.000000000000e+00-1.117587089539e-08 3.600000000000e+01
    2.592060000000e+05 4.000000000000e+00
 6 18  6 13  2  0  0.0 3.964747302234e-04-3.069544618484e-12 0.000000000000e+00
    9.500000000000e+01-5.015625000000e+01 4.072312485304e-09-1.676664311296e+00
   -2.546235918999e-06 1.127734896727e-03 1.241825520992e-05 5.153649604797e+03
    2.664000000000e+05-2.048909664154e-08-3.007395199041e+00 5.587935447693e-09
    9.715788611994e-01 1.498750000000e+02-1.044873440064e+00-7.609959842516e-09
    4.982350392035e-10 1.000000000000e+00 2.005000000000e+03 0.000000000000e+00
    2.400000000000e+00 0.000000000000e+00 4.656612873077e-09 9.500000000000e+01
    2.592060000000e+05 4.000000000000e+00
22 18  6 13  2  0  0.0-4.240013659000e-04-1.261923898710e-11 0.000000000000e+00
    3.700000000000e+01 2.546875000000e+01 6.005964458241e-09-3.359449787825e-01
    1.419335603714e-06 7.366428617388e-03 5.714595317841e-06 5.153779094696e+03
    2.664000000000e+05-6.146728992462e-08-2.016727457136e+00-4.097819328308e-08
    9.248513603429e-01 2.502187500000e+02-1.525901890087e+00-8.830724977998e-09
    4.564475843026e-10 1.000000000000e+00 2.005000000000e+03 0.000000000000e+00
    2.400000000000e+00 0.000000000000e+00-1.769512891769e-08 3.700000000000e+01
    2.592060000000e+05 4.000000000000e+00
25 18  6 13  2  0  0.0-6.000292487442e-04-5.911715561524e-12 0.000000000000e+00
    2.800000000000e+01 6.878125000000e+01 4.317322690962e-09 2.721639552903e+00
    3.518536686897e-06 7.478922954760e-03 2.384185791016e-07 5.153634223938e+03
    2.664000000000e+05 1.024454832077e-07 1.187709611661e+00-1.098960638046e-07
    9.739376220341e-01 3.817187500000e+02 8.683629657745e-01-8.266415757968e-09
    2.917978688382e-10 1.000000000000e+00 2.005000000000e+03 0.000000000000e+00
    2.400000000000e+00 0.000000000000e+00 6.053596735001e-09 2.800000000000e+01
    2.592060000000e+05 4.000000000000e+00
15 18  6 13  2  0  0.0-3.527235239744e-04 6.821210263297e-13 0.000000000000e+00
    2.900000000000e+01-3.315625000000e+01 5.575946546269e-09-5.184003908057e-01
   -1.773238182068e-06 1.028780988418e-02 7.433816790581e-06 5.153751256943e+03
    2.664000000000e+05 1.676380634308e-08-9.935113693821e-01 2.216547727585e-07
    9.279641618207e-01 2.170625000000e+02 6.811134410059e-01-8.610001498265e-09
   -8.021762710044e-10 1.000000000000e+00 2.005000000000e+03 0.000000000000e+00
    2.400000000000e+00 0.000000000000e+00-1.117587089539e-08 2.900000000000e+01
    2.592060000000e+05 4.000000000000e+00
11 18  6 13  2  0  0.0-7.339664734900e-04 1.136868377216e-12 0.000000000000e+00
    3.200000000000e+01-1.392187500000e+02 5.263076371113e-09-2.498672864211e+00
   -7.024034857750e-06 1.687871105969e-02 1.090951263905e-05 5.153647083282e+03
    2.664000000000e+05 1.695007085800e-07 2.856310254136e+00 1.620501279831e-07
    9.059122370981e-01 1.304687500000e+02 1.767985092544e+00-8.077836474313e-09
    2.189376910622e-10 1.000000000000e+00 2.005000000000e+03 0.000000000000e+00
    2.400000000000e+00 0.000000000000e+00-1.210719347000e-08 3.200000000000e+01
    2.592060000000e+05 4.000000000000e+00
23 18  6 13  2  0  0.0-2.159485593438e-04 4.547473508865e-13 0.000000000000e+00
    3.700000000000e+01-2.784375000000e+01 5.169501044754e-09-9.751048287787e-01
   -1.499429345131e-06 1.259583886713e-02 8.272007107735e-06 5.153776580811e+03
    2.664000000000e+05 2.253800630569e-07-9.241408854001e-01 1.695007085800e-07
    9.433090752836e-01 2.082812500000e+02-2.354772958066e+00-8.291773957096e-09
   -8.318203629427e-10 1.000000000000e+00 2.005000000000e+03 0.000000000000e+00
    2.400000000000e+00 0.000000000000e+00-2.002343535423e-08 3.700000000000e+01
    2.592060000000e+05 4.000000000000e+00
17 18  6 13  2  0  0.0-8.881790563464e-05 3.751665644813e-12 0.000000000000e+00
    2.700000000000e+01-1.381250000000e+02 4.087313110140e-09 2.664376402772e-01
   -7.452443242073e-06 1.236510486342e-02 5.248934030533e-06 5.153572711945e+03
    2.664000000000e+05-2.216547727585e-07 2.282304025295e+00-2.048909664154e-08
    9.828021902275e-01 2.919062500000e+02-1.777930076941e+00-8.187483898711e-09
   -2.600108304947e-10 1.000000000000e+00 2.005000000000e+03 0.000000000000e+00
    2.400000000000e+00 0.000000000000e+00-1.117587089539e-08 2.700000000000e+01
    2.592060000000e+05 4.000000000000e+00
10 18  6 13  2  0  0.0 1.880256459117e-04 7.958078640513e-13 0.000000000000e+00
    2.800000000000e+01 2.175000000000e+01 5.140571268284e-09 2.365453872180e+00
    1.166015863419e-06 3.567884559743e-03 5.455687642097e-06 5.153653217316e+03
    2.664000000000e+05-1.005828380585e-07-1.959959986075e+00-9.313225746155e-09
    9.608001978248e-01 2.762500000000e+02-2.742720070763e+00-8.197484315269e-09
    3.578720496645e-10 1.000000000000e+00 2.005000000000e+03 0.000000000000e+00
    2.400000000000e+00 0.000000000000e+00 1.862645149231e-09 2.800000000000e+01
    2.592060000000e+05 4.000000000000e+00
